H1 CPF 01  gfz 2022 03 18 01  5771 terrasarx 
H2 0702601  6201 31698    2022 03 18 00 59 42 2022 03 23 00 00 42   120 1 1  0 0 0
H9
10 0 59658  29502.000000  0    5738568.457  -3399681.519   1716407.224
10 0 59658  29622.000000  0    5789008.935  -3640669.868    827754.147
10 0 59658  29742.000000  0    5734595.654  -3817981.822    -75472.312
10 0 59658  29862.000000  0    5577477.695  -3926729.274   -977371.638
10 0 59658  29982.000000  0    5321689.996  -3963291.516  -1862083.138
10 0 59658  30102.000000  0    4973053.629  -3925407.591  -2714072.771
10 0 59658  30222.000000  0    4539041.224  -3812241.493  -3518411.435
10 0 59658  30342.000000  0    4028611.388  -3624417.717  -4261039.342
10 0 59658  30462.000000  0    3452016.824  -3364027.229  -4929010.478
10 0 59658  30582.000000  0    2820591.548  -3034603.517  -5510713.262
10 0 59658  30702.000000  0    2146523.053  -2641071.231  -5996062.945
10 0 59658  30822.000000  0    1442615.400  -2189669.906  -6376666.108
10 0 59658  30942.000000  0     722045.476  -1687851.698  -6645956.694
10 0 59658  31062.000000  0      -1882.261  -1144155.693  -6799298.352
10 0 59658  31182.000000  0    -715977.140   -568063.200  -6834054.798
10 0 59658  31302.000000  0   -1407396.623     30164.532  -6749629.668
10 0 59658  31422.000000  0   -2063872.190    639664.768  -6547475.166
10 0 59658  31542.000000  0   -2673921.890   1249165.326  -6231069.401
10 0 59658  31662.000000  0   -3227047.298   1847187.795  -5805863.248
10 0 59658  31782.000000  0   -3713913.688   2422259.316  -5279197.242
10 0 59658  31902.000000  0   -4126511.249   2963130.806  -4660186.743
10 0 59658  32022.000000  0   -4458292.423   3458996.784  -3959574.174
10 0 59658  32142.000000  0   -4704281.606   3899712.478  -3189552.235
10 0 59658  32262.000000  0   -4861156.833   4276004.505  -2363559.434
10 0 59658  32382.000000  0   -4927299.942   4579669.005  -1496049.169
10 0 59658  32502.000000  0   -4902814.189   4803753.410   -602237.268
10 0 59658  32622.000000  0   -4789507.426   4942716.526    302169.236
10 0 59658  32742.000000  0   -4590839.527   4992562.180   1201255.320
10 0 59658  32862.000000  0   -4311837.336   4950941.505   2079187.617
10 0 59658  32982.000000  0   -3958975.722   4817221.619   2920503.090
10 0 59658  33102.000000  0   -3540029.955   4592519.289   3710388.855
10 0 59658  33222.000000  0   -3063904.251   4279699.316   4434948.061
10 0 59658  33342.000000  0   -2540440.647   3883337.991   5081447.583
10 0 59658  33462.000000  0   -1980211.938   3409651.740   5638542.105
10 0 59658  33582.000000  0   -1394304.461   2866393.476   6096470.256
10 0 59658  33702.000000  0    -794095.639   2262719.279   6447220.115
10 0 59658  33822.000000  0    -191032.479   1609029.214   6684661.743
10 0 59658  33942.000000  0     403586.108    916785.693   6804649.201
10 0 59658  34062.000000  0     978820.716    198311.062   6805087.791
10 0 59658  34182.000000  0    1524291.438   -533430.791   6685968.294
10 0 59658  34302.000000  0    2030364.448  -1265067.787   6449367.984
10 0 59658  34422.000000  0    2488322.102  -1983063.100   6099416.911
10 0 59658  34542.000000  0    2890514.903  -2673965.866   5642231.359
10 0 59658  34662.000000  0    3230491.969  -3324664.664   5085812.268
10 0 59658  34782.000000  0    3503107.285  -3922639.364   4439911.279
10 0 59658  34902.000000  0    3704601.186  -4456206.789   3715865.031
10 0 59658  35022.000000  0    3832653.717  -4914755.066   2926398.484
10 0 59658  35142.000000  0    3886408.780  -5288960.884   2085401.381
10 0 59658  35262.000000  0    3866468.537  -5570984.528   1207680.804
10 0 59658  35382.000000  0    3774857.442  -5754637.135    308694.507
10 0 59658  35502.000000  0    3614957.353  -5835515.815   -595727.835
10 0 59658  35622.000000  0    3391415.418  -5811105.117  -1489672.652
10 0 59658  35742.000000  0    3110024.706  -5680838.570  -2357431.378
10 0 59658  35862.000000  0    2777583.966  -5446121.775  -3183783.159
10 0 59658  35982.000000  0    2401738.109  -5110315.089  -3954267.084
10 0 59658  36102.000000  0    1990803.991  -4678677.075  -4655435.986
10 0 59658  36222.000000  0    1553587.173  -4158271.655  -5275087.049
10 0 59658  36342.000000  0    1099195.263  -3557842.347  -5802466.721
10 0 59658  36462.000000  0     636850.176  -2887657.121  -6228447.575
10 0 59658  36582.000000  0     175703.208  -2159327.262  -6545675.192
10 0 59658  36702.000000  0    -275342.645  -1385603.317  -6748684.071
10 0 59658  36822.000000  0    -707799.853   -580152.302  -6833982.295
10 0 59658  36942.000000  0   -1113751.332    242680.489  -6800104.796
10 0 59658  37062.000000  0   -1485991.932   1068120.850  -6647634.773
10 0 59658  37182.000000  0   -1818153.312   1881224.219  -6379194.655
10 0 59658  37302.000000  0   -2104810.659   2667139.361  -5999406.061
10 0 59658  37422.000000  0   -2341571.422   3411375.435  -5514819.848
10 0 59658  37542.000000  0   -2525143.138   4100067.699  -4933813.873
10 0 59658  37662.000000  0   -2653380.471   4720238.224  -4266459.864
10 0 59658  37782.000000  0   -2725309.275   5260045.738  -3524358.024
10 0 59658  37902.000000  0   -2741126.300   5709017.816  -2720443.062
10 0 59658  38022.000000  0   -2702175.510   6058263.459  -1868765.658
10 0 59658  38142.000000  0   -2610900.538   6300659.972   -984247.802
10 0 59658  38262.000000  0   -2470773.644   6431005.495    -82419.266
10 0 59658  38382.000000  0   -2286204.489   6446138.673    820858.681
10 0 59658  38502.000000  0   -2062427.918   6345018.219   1709683.269
10 0 59658  38622.000000  0   -1805373.020   6128755.311   2568400.977
10 0 59658  38742.000000  0   -1521519.231   5800602.855   3381890.981
10 0 59658  38862.000000  0   -1217743.492   5365902.748   4135837.038
10 0 59658  38982.000000  0    -901162.231   4831992.362   4816983.870
10 0 59658  39102.000000  0    -578969.522   4208070.609   5413372.141
10 0 59658  39222.000000  0    -258277.702   3505030.224   5914544.778
10 0 59658  39342.000000  0      54035.074   2735259.427   6311726.992
10 0 59658  39462.000000  0     351468.867   1912416.438   6597973.502
10 0 59658  39582.000000  0     628034.528   1051183.128   6768284.274
10 0 59658  39702.000000  0     878372.191    167000.433   6819685.893
10 0 59658  39822.000000  0    1097853.704   -724207.402   6751279.981
10 0 59658  39942.000000  0    1282667.621  -1606319.071   6564259.074
10 0 59658  40062.000000  0    1429885.587  -2463307.273   6261887.402
10 0 59658  40182.000000  0    1537508.907  -3279530.691   5849447.989
10 0 59658  40302.000000  0    1604494.160  -4040022.037   5334154.967
10 0 59658  40422.000000  0    1630758.123  -4730765.286   4725032.263
10 0 59658  40542.000000  0    1617162.622  -5338959.270   4032762.494
10 0 59658  40662.000000  0    1565478.738  -5853264.867   3269504.254
10 0 59658  40782.000000  0    1478330.124  -6264025.467   2448678.345
10 0 59658  40902.000000  0    1359117.306  -6563456.538   1584730.975
10 0 59658  41022.000000  0    1211924.800  -6745802.140    692876.284
10 0 59658  41142.000000  0    1041412.950  -6807452.285   -211178.172
10 0 59658  41262.000000  0     852695.778  -6747018.244  -1111518.030
10 0 59658  41382.000000  0     651209.244  -6565359.509  -1992312.934
10 0 59658  41502.000000  0     442574.771  -6265564.856  -2838101.859
10 0 59658  41622.000000  0     232460.828  -5852891.075  -3634069.229
10 0 59658  41742.000000  0      26445.434  -5334659.499  -4366307.048
10 0 59658  41862.000000  0    -170117.055  -4720112.534  -5022056.126
10 0 59658  41982.000000  0    -352221.203  -4020236.792  -5589922.319
10 0 59658  42102.000000  0    -515325.218  -3247556.420  -6060066.119
10 0 59658  42222.000000  0    -655452.570  -2415901.591  -6424362.472
10 0 59658  42342.000000  0    -769279.152  -1540157.166  -6676529.721
10 0 59658  42462.000000  0    -854204.512   -635996.937  -6812227.237
10 0 59658  42582.000000  0    -908406.035    280393.471  -6829122.504
10 0 59658  42702.000000  0    -930875.111   1192600.132  -6726925.554
10 0 59658  42822.000000  0    -921435.369   2084267.096  -6507393.333
10 0 59658  42942.000000  0    -880742.635   2939382.171  -6174302.919
10 0 59658  43062.000000  0    -810266.217   3742559.914  -5733395.004
10 0 59658  43182.000000  0    -712252.053   4479317.238  -5192284.660
10 0 59658  43302.000000  0    -589667.919   5136336.504  -4560341.431
10 0 59658  43422.000000  0    -446132.171   5701712.897  -3848537.940
10 0 59658  43542.000000  0    -285826.490   6165179.323  -3069267.975
10 0 59658  43662.000000  0    -113394.183   6518304.035  -2236137.327
10 0 59658  43782.000000  0      66173.632   6754656.890  -1363729.276
10 0 59658  43902.000000  0     247661.494   6869938.830   -467348.409
10 0 59658  44022.000000  0     425760.216   6862070.437    437252.265
10 0 59658  44142.000000  0     595201.282   6731236.791   1334155.622
10 0 59658  44262.000000  0     750890.753   6479885.850   2207569.590
10 0 59658  44382.000000  0     888038.247   6112680.705   3042113.360
10 0 59658  44502.000000  0    1002279.096   5636409.511   3823095.339
10 0 59658  44622.000000  0    1089788.299   5059852.986   4536776.776
10 0 59658  44742.000000  0    1147380.976   4393613.583   5170619.909
10 0 59658  44862.000000  0    1172595.682   3649906.386   5713505.774
10 0 59658  44982.000000  0    1163763.457   2842327.424   6155923.921
10 0 59658  45102.000000  0    1120057.110   1985598.266   6490134.454
10 0 59658  45222.000000  0    1041521.506   1095292.487   6710297.715
10 0 59658  45342.000000  0     929084.392    187549.449   6812569.782
10 0 59658  45462.000000  0     784547.489   -721217.232   6795164.938
10 0 59658  45582.000000  0     610557.614  -1614615.948   6658386.471
10 0 59658  45702.000000  0     410558.191  -2476572.601   6404621.863
10 0 59658  45822.000000  0     188721.865  -3291620.800   6038304.091
10 0 59658  45942.000000  0     -50134.059  -4045180.915   5565836.169
99
